{
  "type": "FeatureCollection",
  "features": [
    {
      "type": "Feature",
      "properties": {
        "norad_id": 55268,
        "name": "GPS BIII-6  (PRN 28)",
        "group": "gnss",
        "lat": -7.42562092290846,
        "lon": 150.74541350102768,
        "alt_km": 20174.57816639254,
        "timestamp": "2025-12-09T11:33:55.043090+00:00",
        "meta_object_name": "GPS BIII-6  (PRN 28)",
        "meta_object_id": "2023-009A",
        "meta_epoch": "2025-12-08T05:52:26.989248",
        "meta_mean_motion": 2.00555991,
        "meta_eccentricity": 0.0003615,
        "meta_inclination": 55.1046,
        "meta_ra_of_asc_node": 156.0217,
        "meta_arg_of_pericenter": 356.7859,
        "meta_mean_anomaly": 180.9144,
        "meta_ephemeris_type": 0,
        "meta_classification_type": "U",
        "meta_norad_cat_id": 55268,
        "meta_element_set_no": 999,
        "meta_rev_at_epoch": 2141,
        "meta_bstar": 0,
        "meta_mean_motion_dot": 5.9e-07,
        "meta_mean_motion_ddot": 0,
        "tle_line1": "1 55268U 23009A   25342.24475682  .00000059  00000+0  00000+0 0  9996",
        "tle_line2": "2 55268  55.1046 156.0217 0003615 356.7859 180.9144  2.00555991 21410"
      },
      "geometry": {
        "type": "Point",
        "coordinates": [
          150.74541350102768,
          -7.42562092290846
        ]
      }
    },
    {
      "type": "Feature",
      "properties": {
        "norad_id": 56564,
        "name": "BEIDOU-3 G4 (C62)",
        "group": "gnss",
        "lat": 0.7906689228784606,
        "lon": 51.986739915726254,
        "alt_km": 35793.515012575226,
        "timestamp": "2025-12-09T11:33:55.043119+00:00",
        "meta_object_name": "BEIDOU-3 G4 (C62)",
        "meta_object_id": "2023-066A",
        "meta_epoch": "2025-12-09T05:16:38.690400",
        "meta_mean_motion": 1.00271218,
        "meta_eccentricity": 0.000303,
        "meta_inclination": 0.8226,
        "meta_ra_of_asc_node": 301.7802,
        "meta_arg_of_pericenter": 235.5487,
        "meta_mean_anomaly": 140.1135,
        "meta_ephemeris_type": 0,
        "meta_classification_type": "U",
        "meta_norad_cat_id": 56564,
        "meta_element_set_no": 999,
        "meta_rev_at_epoch": 949,
        "meta_bstar": 0,
        "meta_mean_motion_dot": -1.09e-06,
        "meta_mean_motion_ddot": 0,
        "tle_line1": "1 56564U 23066A   25343.21989225 -.00000109  00000+0  00000+0 0  9997",
        "tle_line2": "2 56564   0.8226 301.7802 0003030 235.5487 140.1135  1.00271218  9496"
      },
      "geometry": {
        "type": "Point",
        "coordinates": [
          51.986739915726254,
          0.7906689228784606
        ]
      }
    },
    {
      "type": "Feature",
      "properties": {
        "norad_id": 56759,
        "name": "NVS-01 (IRNSS-1J)",
        "group": "gnss",
        "lat": 2.034296020589,
        "lon": 21.490202721173098,
        "alt_km": 35806.90250231515,
        "timestamp": "2025-12-09T11:33:55.043139+00:00",
        "meta_object_name": "NVS-01 (IRNSS-1J)",
        "meta_object_id": "2023-076A",
        "meta_epoch": "2025-12-09T01:44:38.707008",
        "meta_mean_motion": 1.00264904,
        "meta_eccentricity": 0.0008666,
        "meta_inclination": 2.627,
        "meta_ra_of_asc_node": 251.7336,
        "meta_arg_of_pericenter": 8.3291,
        "meta_mean_anomaly": 333.6082,
        "meta_ephemeris_type": 0,
        "meta_classification_type": "U",
        "meta_norad_cat_id": 56759,
        "meta_element_set_no": 999,
        "meta_rev_at_epoch": 920,
        "meta_bstar": 0,
        "meta_mean_motion_dot": -3.34e-06,
        "meta_mean_motion_ddot": 0,
        "tle_line1": "1 56759U 23076A   25343.07267022 -.00000334  00000+0  00000+0 0  9992",
        "tle_line2": "2 56759   2.6270 251.7336 0008666   8.3291 333.6082  1.00264904  9209"
      },
      "geometry": {
        "type": "Point",
        "coordinates": [
          21.490202721173098,
          2.034296020589
        ]
      }
    },
    {
      "type": "Feature",
      "properties": {
        "norad_id": 57517,
        "name": "COSMOS 2569 (703K)",
        "group": "gnss",
        "lat": -29.405171233931387,
        "lon": -85.88393358875156,
        "alt_km": 19126.608336222802,
        "timestamp": "2025-12-09T11:33:55.043158+00:00",
        "meta_object_name": "COSMOS 2569 (703K)",
        "meta_object_id": "2023-114A",
        "meta_epoch": "2025-12-07T19:07:05.045952",
        "meta_mean_motion": 2.13103857,
        "meta_eccentricity": 0.00103488,
        "meta_inclination": 65.1916,
        "meta_ra_of_asc_node": 79.0806,
        "meta_arg_of_pericenter": 287.0317,
        "meta_mean_anomaly": 72.8691,
        "meta_ephemeris_type": 0,
        "meta_classification_type": "U",
        "meta_norad_cat_id": 57517,
        "meta_element_set_no": 999,
        "meta_rev_at_epoch": 1818,
        "meta_bstar": 0,
        "meta_mean_motion_dot": -1.2e-07,
        "meta_mean_motion_ddot": 0,
        "tle_line1": "1 57517U 23114A   25341.79658618 -.00000012  00000+0  00000+0 0  9993",
        "tle_line2": "2 57517  65.1916  79.0806 0010348 287.0317  72.8691  2.13103857 18180"
      },
      "geometry": {
        "type": "Point",
        "coordinates": [
          -85.88393358875156,
          -29.405171233931387
        ]
      }
    },
    {
      "type": "Feature",
      "properties": {
        "norad_id": 58654,
        "name": "BEIDOU-3 M28 (C50)",
        "group": "gnss",
        "lat": 1.6033810597607265,
        "lon": -112.37693368939804,
        "alt_km": 21528.270835136176,
        "timestamp": "2025-12-09T11:33:55.043170+00:00",
        "meta_object_name": "BEIDOU-3 M28 (C50)",
        "meta_object_id": "2023-207A",
        "meta_epoch": "2025-12-07T14:31:49.044864",
        "meta_mean_motion": 1.86229593,
        "meta_eccentricity": 0.0002234,
        "meta_inclination": 55.5801,
        "meta_ra_of_asc_node": 68.7753,
        "meta_arg_of_pericenter": 268.0479,
        "meta_mean_anomaly": 91.9457,
        "meta_ephemeris_type": 0,
        "meta_classification_type": "U",
        "meta_norad_cat_id": 58654,
        "meta_element_set_no": 999,
        "meta_rev_at_epoch": 1327,
        "meta_bstar": 0,
        "meta_mean_motion_dot": -4.6e-07,
        "meta_mean_motion_ddot": 0,
        "tle_line1": "1 58654U 23207A   25341.60542876 -.00000046  00000+0  00000+0 0  9994",
        "tle_line2": "2 58654  55.5801  68.7753 0002234 268.0479  91.9457  1.86229593 13270"
      },
      "geometry": {
        "type": "Point",
        "coordinates": [
          -112.37693368939804,
          1.6033810597607265
        ]
      }
    },
    {
      "type": "Feature",
      "properties": {
        "norad_id": 58655,
        "name": "BEIDOU-3 M26 (C48)",
        "group": "gnss",
        "lat": -36.61325543660293,
        "lon": 38.13100431161859,
        "alt_km": 21527.400977288613,
        "timestamp": "2025-12-09T11:33:55.043180+00:00",
        "meta_object_name": "BEIDOU-3 M26 (C48)",
        "meta_object_id": "2023-207B",
        "meta_epoch": "2025-12-08T11:26:54.595392",
        "meta_mean_motion": 1.8623113,
        "meta_eccentricity": 0.00036549,
        "meta_inclination": 55.583,
        "meta_ra_of_asc_node": 68.7321,
        "meta_arg_of_pericenter": 253.8899,
        "meta_mean_anomaly": 106.0912,
        "meta_ephemeris_type": 0,
        "meta_classification_type": "U",
        "meta_norad_cat_id": 58655,
        "meta_element_set_no": 999,
        "meta_rev_at_epoch": 1327,
        "meta_bstar": 0,
        "meta_mean_motion_dot": -4.7e-07,
        "meta_mean_motion_ddot": 0,
        "tle_line1": "1 58655U 23207B   25342.47702078 -.00000047  00000+0  00000+0 0  9994",
        "tle_line2": "2 58655  55.5830  68.7321 0003654 253.8899 106.0912  1.86231130 13273"
      },
      "geometry": {
        "type": "Point",
        "coordinates": [
          38.13100431161859,
          -36.61325543660293
        ]
      }
    },
    {
      "type": "Feature",
      "properties": {
        "norad_id": 59598,
        "name": "GSAT0225 (GALILEO 29)",
        "group": "gnss",
        "lat": 53.4515650655084,
        "lon": 177.1602297897427,
        "alt_km": 23216.409156353846,
        "timestamp": "2025-12-09T11:33:55.043191+00:00",
        "meta_object_name": "GSAT0225 (GALILEO 29)",
        "meta_object_id": "2024-079A",
        "meta_epoch": "2025-12-07T13:01:48.128160",
        "meta_mean_motion": 1.70474573,
        "meta_eccentricity": 0.0002046,
        "meta_inclination": 54.9986,
        "meta_ra_of_asc_node": 106.4402,
        "meta_arg_of_pericenter": 173.6326,
        "meta_mean_anomaly": 155.0404,
        "meta_ephemeris_type": 0,
        "meta_classification_type": "U",
        "meta_norad_cat_id": 59598,
        "meta_element_set_no": 999,
        "meta_rev_at_epoch": 1004,
        "meta_bstar": 0,
        "meta_mean_motion_dot": 7e-08,
        "meta_mean_motion_ddot": 0,
        "tle_line1": "1 59598U 24079A   25341.54291815  .00000007  00000+0  00000+0 0  9993",
        "tle_line2": "2 59598  54.9986 106.4402 0002046 173.6326 155.0404  1.70474573 10048"
      },
      "geometry": {
        "type": "Point",
        "coordinates": [
          177.1602297897427,
          53.4515650655084
        ]
      }
    }
  ]
}